NORAD_CAT_ID,OBJECT_NAME,OBJECT_TYPE,EPOCH,MEAN_MOTION,ECCENTRICITY,INCLINATION,RA_OF_ASC_NODE,ARG_OF_PERICENTER,MEAN_ANOMALY,BSTAR,MEAN_MOTION_DOT,MEAN_MOTION_DDOT,TLE_LINE0,TLE_LINE1,TLE_LINE2,SEMIMAJOR_AXIS,PERIOD,APOGEE,PERIGEE,DECAYED
52850.0,STARLINK-4187,PAYLOAD,2022-09-07 04:00:00,15.08809284,0.0001465,53.218,18.1059,68.684,341.242,0.0024204,0.0003841,0.0,0 STARLINK-4187,1 52850U 22062W   22250.16667824  .00038410  00000-0  24204-2 0  9993,2 52850  53.2180  18.1059 0001465  68.6840 341.2420 15.08809284 13110,6917.974,95.439,540.8530000000002,538.826,0.0
52850.0,STARLINK-4187,PAYLOAD,2022-09-07 14:00:01,15.08849199,0.0001588999999999,53.2181,16.2366,64.6081,89.79,-0.0011449,-0.00018467,0.0,0 STARLINK-4187,1 52850U 22062W   22250.58334491 -.00018467  00000-0 -11449-2 0  9999,2 52850  53.2181  16.2366 0001589  64.6081  89.7900 15.08849199  1305,6917.852,95.437,540.817,538.618,0.0
52850.0,STARLINK-4187,PAYLOAD,2022-09-07 22:00:00,15.08850583,0.0001544,53.2182,14.7403,59.0941,106.9008,-0.0018785999999999,-0.0003007,0.0,0 STARLINK-4187,1 52850U 22062W   22250.91667824 -.00030070  00000-0 -18786-2 0  9990,2 52850  53.2182  14.7403 0001544  59.0941 106.9008 15.08850583  1305,6917.848000000001,95.437,540.781,538.645,0.0
52850.0,STARLINK-4187,PAYLOAD,2022-09-08 14:00:01,15.08852676,0.0001519,53.2188,11.7476,60.6407,128.5447,-0.00088466,-0.00014345,0.0,0 STARLINK-4187,1 52850U 22062W   22251.58334491 -.00014345  00000-0 -88466-3 0  9995,2 52850  53.2188  11.7476 0001519  60.6407 128.5447 15.08852676  1307,6917.842,95.437,540.757,538.656,0.0
52850.0,STARLINK-4187,PAYLOAD,2022-09-08 22:00:00,15.0886353,0.0001457,53.2189,10.2511,56.2022,144.5905,-0.0023318,-0.00037231,0.0,0 STARLINK-4187,1 52850U 22062W   22251.91667824 -.00037231  00000-0 -23318-2 0  9994,2 52850  53.2189  10.2511 0001457  56.2022 144.5905 15.08863530  1305,6917.808000000001,95.436,540.681,538.6659999999998,0.0
52850.0,STARLINK-4187,PAYLOAD,2022-09-09 14:00:01,15.08870308,0.0001478,53.2193,7.2587,57.7775,166.2251,-0.0034289,-0.00054491,0.0,0 STARLINK-4187,1 52850U 22062W   22252.58334491 -.00054491  00000-0 -34289-2 0  9995,2 52850  53.2193   7.2587 0001478  57.7775 166.2251 15.08870308  1309,6917.788000000001,95.436,540.675,538.63,0.0
52850.0,STARLINK-4187,PAYLOAD,2022-09-09 22:00:00,15.08846604,0.0001449,53.2192,5.7622,54.8438,180.7643,-0.002766,-0.00044048,0.0,0 STARLINK-4187,1 52850U 22062W   22252.91667824 -.00044048  00000-0 -27660-2 0  9993,2 52850  53.2192   5.7622 0001449  54.8438 180.7643 15.08846604  1301,6917.86,95.437,540.7280000000002,538.7230000000002,0.0
52850.0,STARLINK-4187,PAYLOAD,2022-09-10 06:00:02,15.08811645,0.0001298,53.2194,4.2646,62.2936,184.9703,0.0031254,0.00049765,0.0,0 STARLINK-4187,1 52850U 22062W   22253.25002315  .00049765  00000-0  31254-2 0  9992,2 52850  53.2194   4.2646 0001298  62.2936 184.9703 15.08811645 13584,6917.967,95.439,540.73,538.934,0.0
52850.0,STARLINK-4187,PAYLOAD,2022-09-10 14:00:01,15.0884131,0.0001452,53.2194,2.7701,56.7794,201.9952,-0.0010113,-0.00016347,0.0,0 STARLINK-4187,1 52850U 22062W   22253.58334491 -.00016347  00000-0 -10113-2 0  9994,2 52850  53.2194   2.7701 0001452  56.7794 201.9952 15.08841310  1306,6917.876,95.437,540.746,538.737,0.0
52850.0,STARLINK-4187,PAYLOAD,2022-09-10 22:00:00,15.08849929,0.0001458,53.2192,1.2735,56.0952,214.2725,-0.0025569,-0.00040762,0.0,0 STARLINK-4187,1 52850U 22062W   22253.91667824 -.00040762  00000-0 -25569-2 0  9999,2 52850  53.2192   1.2735 0001458  56.0952 214.2725 15.08849929  1309,6917.85,95.437,540.724,538.706,0.0
52850.0,STARLINK-4187,PAYLOAD,2022-09-11 14:00:01,15.08875551,0.000146,53.2188,358.285,61.3995,232.1412,-0.0049641,-0.00078507,0.0,0 STARLINK-4187,1 52850U 22062W   22254.58334491 -.00078507  00000-0 -49641-2 0  9999,2 52850  53.2188 358.2850 0001460  61.3995 232.1412 15.08875551 13783,6917.772,95.435,540.6469999999998,538.627,0.0
52850.0,STARLINK-4187,PAYLOAD,2022-09-11 22:00:00,15.08759471,0.0001286999999999,53.2177,356.7905,65.6087,239.5506,0.0063953999999999,0.00102755,0.0,0 STARLINK-4187,1 52850U 22062W   22254.91667824  .00102755  00000-0  63954-2 0  9999,2 52850  53.2177 356.7905 0001287  65.6087 239.5506 15.08759471  1303,6918.127,95.443,540.882,539.101,0.0
52850.0,STARLINK-4187,PAYLOAD,2022-09-12 06:00:00,15.08830382,0.0001465999999999,53.2188,355.2876,68.0196,248.721,0.0021261,0.00033702,0.0,0 STARLINK-4187,1 52850U 22062W   22255.25001157  .00033702  00000-0  21261-2 0  9998,2 52850  53.2188 355.2876 0001466  68.0196 248.7210 15.08830382 13884,6917.91,95.438,540.789,538.761,0.0
52850.0,STARLINK-4187,PAYLOAD,2022-09-12 14:00:01,15.08838532,0.0001564999999999,53.2185,353.7932,58.6323,269.7107,-0.0011102,-0.00017913,0.0,0 STARLINK-4187,1 52850U 22062W   22255.58334491 -.00017913  00000-0 -11102-2 0  9995,2 52850  53.2185 353.7932 0001565  58.6323 269.7107 15.08838532  1301,6917.885,95.438,540.8330000000002,538.6669999999998,0.0
52850.0,STARLINK-4187,PAYLOAD,2022-09-12 22:00:00,15.08856818,0.0001486,53.2181,352.2961,57.4439,282.485,-0.0016375,-0.00026266,0.0,0 STARLINK-4187,1 52850U 22062W   22255.91667824 -.00026266  00000-0 -16375-2 0  9999,2 52850  53.2181 352.2961 0001486  57.4439 282.4850 15.08856818 13981,6917.829000000002,95.436,540.722,538.6659999999998,0.0
52850.0,STARLINK-4187,PAYLOAD,2022-09-13 14:00:01,15.08842196,0.000165,53.2181,349.3044,57.8509,305.2799,-0.00080633,-0.00013099,0.0,0 STARLINK-4187,1 52850U 22062W   22256.58334491 -.00013099  00000-0 -80633-3 0  9993,2 52850  53.2181 349.3044 0001650  57.8509 305.2799 15.08842196  1308,6917.874,95.437,540.88,538.597,0.0
52850.0,STARLINK-4187,PAYLOAD,2022-09-13 16:00:00,15.08834033,0.0001639,53.218,348.9318,55.7008,40.3307,7.4595e-05,8.99e-06,0.0,0 STARLINK-4187,1 52850U 22062W   22256.66667824  .00000899  00000-0  74595-4 0  9994,2 52850  53.2180 348.9318 0001639  55.7008  40.3307 15.08834033 14097,6917.899,95.438,540.8969999999998,538.63,0.0
52850.0,STARLINK-4187,PAYLOAD,2022-09-13 22:00:00,15.08865501,0.0001519,53.2176,347.8099,54.8326,319.8849,-0.0059605,-0.00093979,0.0,0 STARLINK-4187,1 52850U 22062W   22256.91667824 -.00093979  00000-0 -59605-2 0  9998,2 52850  53.2176 347.8099 0001519  54.8326 319.8849 15.08865501  1305,6917.802,95.436,540.7180000000002,538.617,0.0
52850.0,STARLINK-4187,PAYLOAD,2022-09-14 14:00:01,15.08841085,0.0001593,53.218,344.8154,54.2863,343.5903,-0.00064661,-0.00010564,0.0,0 STARLINK-4187,1 52850U 22062W   22257.58334491 -.00010564  00000-0 -64661-3 0  9991,2 52850  53.2180 344.8154 0001593  54.2863 343.5903 15.08841085  1307,6917.877,95.437,540.844,538.64,0.0
52850.0,STARLINK-4187,PAYLOAD,2022-09-14 22:00:00,15.088444,0.0001455,53.218,343.3179,52.8152,356.6556,-0.0018124,-0.0002901999999999,0.0,0 STARLINK-4187,1 52850U 22062W   22257.91667824 -.00029020  00000-0 -18124-2 0  9996,2 52850  53.2180 343.3179 0001455  52.8152 356.6556 15.08844400 14284,6917.8669999999975,95.437,540.738,538.725,0.0
52850.0,STARLINK-4187,PAYLOAD,2022-09-15 14:00:01,15.08855254,0.0001644,53.2182,340.3262,51.6034,21.0565,-0.00080491,-0.00013081,0.0,0 STARLINK-4187,1 52850U 22062W   22258.58334491 -.00013081  00000-0 -80491-3 0  9998,2 52850  53.2182 340.3262 0001644  51.6034  21.0565 15.08855254  1303,6917.834,95.437,540.836,538.561,0.0
52850.0,STARLINK-4187,PAYLOAD,2022-09-15 22:00:00,15.08854626,0.0001581,53.2183,338.8286,53.3303,30.9381,-0.0017573,-0.00028158,0.0,0 STARLINK-4187,1 52850U 22062W   22258.91667824 -.00028158  00000-0 -17573-2 0  9995,2 52850  53.2183 338.8286 0001581  53.3303  30.9381 15.08854626  1307,6917.8359999999975,95.437,540.794,538.607,0.0
52850.0,STARLINK-4187,PAYLOAD,2022-09-16 02:00:01,15.08831676,0.0001484,53.2183,338.0797,56.5727,213.5024,0.00018548,2.665e-05,0.0,0 STARLINK-4187,1 52850U 22062W   22259.08334491  .00002665  00000-0  18548-3 0  9992,2 52850  53.2183 338.0797 0001484  56.5727 213.5024 15.08831676 14467,6917.906,95.438,540.797,538.744,0.0
52850.0,STARLINK-4187,PAYLOAD,2022-09-16 14:00:01,15.0882336,0.0001692,53.2186,335.8371,50.7114,56.7388,-0.0010232,-0.00016528,0.0,0 STARLINK-4187,1 52850U 22062W   22259.58334491 -.00016528  00000-0 -10232-2 0  9993,2 52850  53.2186 335.8371 0001692  50.7114  56.7388 15.08823360  1300,6917.931,95.439,540.967,538.626,0.0
52850.0,STARLINK-4187,PAYLOAD,2022-09-16 22:00:00,15.08821797,0.000162,53.2186,334.3395,54.575,64.449,-0.00077563,-0.00012605,0.0,0 STARLINK-4187,1 52850U 22062W   22259.91667824 -.00012605  00000-0 -77563-3 0  9992,2 52850  53.2186 334.3395 0001620  54.5750  64.4490 15.08821797 14585,6917.936,95.439,540.922,538.68,0.0
52850.0,STARLINK-4187,PAYLOAD,2022-09-17 14:00:01,15.08811304,0.0001739,53.2187,331.3481,51.5473,90.6197,0.0021627,0.00034272,0.0,0 STARLINK-4187,1 52850U 22062W   22260.58334491  .00034272  00000-0  21627-2 0  9999,2 52850  53.2187 331.3481 0001739  51.5473  90.6197 15.08811304  1303,6917.968000000003,95.439,541.036,538.63,0.0
52850.0,STARLINK-4187,PAYLOAD,2022-09-17 22:00:00,15.08840972,0.0001599,53.2186,329.8505,55.0859,98.6562,-0.00073754,-0.00012007,0.0,0 STARLINK-4187,1 52850U 22062W   22260.91667824 -.00012007  00000-0 -73754-3 0  9998,2 52850  53.2186 329.8505 0001599  55.0859  98.6562 15.08840972  1309,6917.877,95.437,540.849,538.636,0.0
52850.0,STARLINK-4187,PAYLOAD,2022-09-18 14:00:01,15.08833038,0.0001723,53.2186,326.8592,51.1315,125.8779,0.0026355,0.00041898,0.0,0 STARLINK-4187,1 52850U 22062W   22261.58335648  .00041898  00000-0  26355-2 0  9990,2 52850  53.2186 326.8592 0001723  51.1315 125.8779 15.08833038 14846,6917.901999999999,95.438,540.9590000000002,538.575,0.0
52850.0,STARLINK-4187,PAYLOAD,2022-09-18 22:00:00,15.08877438,0.0001544,53.2184,325.3614,55.0079,133.546,-0.002306,-0.00036838,0.0,0 STARLINK-4187,1 52850U 22062W   22261.91667824 -.00036838  00000-0 -23060-2 0  9991,2 52850  53.2184 325.3614 0001544  55.0079 133.5460 15.08877438  1306,6917.766,95.435,540.6990000000002,538.563,0.0
